STARLINK-4621           
1 53676U 22105AE  26068.66720969 -.00001041  00000+0 -76561-4 0  9990
2 53676  97.6010 310.1897 0003311  33.3535 326.7897 15.01252403193234
CURIUM ONE              
1 60242U 24128H   26068.68697111  .00012574  00000+0  74107-3 0  9992
2 60242  61.9790 197.7537 0050891 110.7183 249.9377 15.10847276 91418
